[{"OBJECT_NAME":"STARLINK-4656","OBJECT_ID":"2022-107AX","EPOCH":"2026-03-09T20:03:24.504192","MEAN_MOTION":15.08816927,"ECCENTRICITY":0.0001686,"INCLINATION":53.2163,"RA_OF_ASC_NODE":263.5975,"ARG_OF_PERICENTER":82.845,"MEAN_ANOMALY":277.2733,"EPHEMERIS_TYPE":0,"CLASSIFICATION_TYPE":"U","NORAD_CAT_ID":53745,"ELEMENT_SET_NO":999,"REV_AT_EPOCH":19461,"BSTAR":6.1801e-8,"MEAN_MOTION_DOT":-2.87e-6,"MEAN_MOTION_DDOT":0},{"OBJECT_NAME":"OBJECT F","OBJECT_ID":"2025-292F","EPOCH":"2026-03-09T22:41:00.950496","MEAN_MOTION":15.06065121,"ECCENTRICITY":0.00151037,"INCLINATION":97.6416,"RA_OF_ASC_NODE":145.7425,"ARG_OF_PERICENTER":346.7214,"MEAN_ANOMALY":13.3613,"EPHEMERIS_TYPE":0,"CLASSIFICATION_TYPE":"U","NORAD_CAT_ID":66998,"ELEMENT_SET_NO":999,"REV_AT_EPOCH":1351,"BSTAR":0.00047210602,"MEAN_MOTION_DOT":6.85e-5,"MEAN_MOTION_DDOT":0}]
